{"type": "FeatureCollection", "features": [ {"type": "Feature", "properties": {"norad_id": 43058, "name": "GSAT0218 (GALILEO 22)", "group": "galileo", "lat": -3.992937302608693, "lon": -135.91834717623144, "alt_km": 23217.548598896446, "timestamp": "2025-12-04T09:47:37.784380+00:00", "meta": {"OBJECT_NAME": "GSAT0218 (GALILEO 22)", "OBJECT_ID": "2017-079D", "EPOCH": "2025-12-03T05:49:40.297728", "MEAN_MOTION": 1.70473824, "ECCENTRICITY": 0.00029171, "INCLINATION": 55.1321, "RA_OF_ASC_NODE": 226.8951, "ARG_OF_PERICENTER": 304.1404, "MEAN_ANOMALY": 55.9211, "EPHEMERIS_TYPE": 0, "CLASSIFICATION_TYPE": "U", "NORAD_CAT_ID": 43058, "ELEMENT_SET_NO": 999, "REV_AT_EPOCH": 4967, "BSTAR": 0, "MEAN_MOTION_DOT": 3.9e-07, "MEAN_MOTION_DDOT": 0}, "tle": {"line1": "1 43058U 17079D   25337.24282752  .00000039  00000+0  00000+0 0  9996", "line2": "2 43058  55.1321 226.8951 0002917 304.1404  55.9211  1.70473824 49672"}}, "geometry": {"type": "Point", "coordinates": [-135.91834717623144, -3.992937302608693]}}, {"type": "Feature", "properties": {"norad_id": 43564, "name": "GSAT0221 (GALILEO 25)", "group": "galileo", "lat": 43.45626051169666, "lon": 24.672484647132293, "alt_km": 23230.73226853535, "timestamp": "2025-12-04T09:47:37.784391+00:00", "meta": {"OBJECT_NAME": "GSAT0221 (GALILEO 25)", "OBJECT_ID": "2018-060A", "EPOCH": "2025-12-01T09:15:23.303232", "MEAN_MOTION": 1.70475711, "ECCENTRICITY": 0.00066191, "INCLINATION": 57.2301, "RA_OF_ASC_NODE": 347.1247, "ARG_OF_PERICENTER": 279.777, "MEAN_ANOMALY": 80.1905, "EPHEMERIS_TYPE": 0, "CLASSIFICATION_TYPE": "U", "NORAD_CAT_ID": 43564, "ELEMENT_SET_NO": 999, "REV_AT_EPOCH": 4579, "BSTAR": 0, "MEAN_MOTION_DOT": -5.9e-07, "MEAN_MOTION_DDOT": 0}, "tle": {"line1": "1 43564U 18060A   25335.38568638 -.00000059  00000+0  00000+0 0  9995", "line2": "2 43564  57.2301 347.1247 0006619 279.7770  80.1905  1.70475711 45792"}}, "geometry": {"type": "Point", "coordinates": [24.672484647132293, 43.45626051169666]}}, {"type": "Feature", "properties": {"norad_id": 43565, "name": "GSAT0222 (GALILEO 26)", "group": "galileo", "lat": -55.80767118110257, "lon": -84.4232970906736, "alt_km": 23210.750754617526, "timestamp": "2025-12-04T09:47:37.784402+00:00", "meta": {"OBJECT_NAME": "GSAT0222 (GALILEO 26)", "OBJECT_ID": "2018-060B", "EPOCH": "2025-12-02T18:40:34.092768", "MEAN_MOTION": 1.70475403, "ECCENTRICITY": 0.00061808, "INCLINATION": 57.2338, "RA_OF_ASC_NODE": 347.09, "ARG_OF_PERICENTER": 260.4743, "MEAN_ANOMALY": 99.4943, "EPHEMERIS_TYPE": 0, "CLASSIFICATION_TYPE": "U", "NORAD_CAT_ID": 43565, "ELEMENT_SET_NO": 999, "REV_AT_EPOCH": 4586, "BSTAR": 0, "MEAN_MOTION_DOT": -6.4e-07, "MEAN_MOTION_DDOT": 0}, "tle": {"line1": "1 43565U 18060B   25336.77817237 -.00000064  00000+0  00000+0 0  9998", "line2": "2 43565  57.2338 347.0900 0006180 260.4743  99.4943  1.70475403 45869"}}, "geometry": {"type": "Point", "coordinates": [-84.4232970906736, -55.80767118110257]}}, {"type": "Feature", "properties": {"norad_id": 43566, "name": "GSAT0219 (GALILEO 23)", "group": "galileo", "lat": 29.202944157413956, "lon": 145.94688413608037, "alt_km": 23232.12109786044, "timestamp": "2025-12-04T09:47:37.784412+00:00", "meta": {"OBJECT_NAME": "GSAT0219 (GALILEO 23)", "OBJECT_ID": "2018-060C", "EPOCH": "2025-12-03T14:03:42.727680", "MEAN_MOTION": 1.70475586, "ECCENTRICITY": 0.00058261, "INCLINATION": 57.2326, "RA_OF_ASC_NODE": 347.0697, "ARG_OF_PERICENTER": 286.7572, "MEAN_ANOMALY": 73.2143, "EPHEMERIS_TYPE": 0, "CLASSIFICATION_TYPE": "U", "NORAD_CAT_ID": 43566, "ELEMENT_SET_NO": 999, "REV_AT_EPOCH": 4585, "BSTAR": 0, "MEAN_MOTION_DOT": -6.8e-07, "MEAN_MOTION_DDOT": 0}, "tle": {"line1": "1 43566U 18060C   25337.58591120 -.00000068  00000+0  00000+0 0  9993", "line2": "2 43566  57.2326 347.0697 0005826 286.7572  73.2143  1.70475586 45850"}}, "geometry": {"type": "Point", "coordinates": [145.94688413608037, 29.202944157413956]}}, {"type": "Feature", "properties": {"norad_id": 43567, "name": "GSAT0220 (GALILEO 24)", "group": "galileo", "lat": 7.557985306846678, "lon": -8.043016562693182, "alt_km": 23220.835235548362, "timestamp": "2025-12-04T09:47:37.784423+00:00", "meta": {"OBJECT_NAME": "GSAT0220 (GALILEO 24)", "OBJECT_ID": "2018-060D", "EPOCH": "2025-12-01T11:03:06.852672", "MEAN_MOTION": 1.70475407, "ECCENTRICITY": 0.00061058, "INCLINATION": 57.2328, "RA_OF_ASC_NODE": 347.128, "ARG_OF_PERICENTER": 280.6549, "MEAN_ANOMALY": 79.3184, "EPHEMERIS_TYPE": 0, "CLASSIFICATION_TYPE": "U", "NORAD_CAT_ID": 43567, "ELEMENT_SET_NO": 999, "REV_AT_EPOCH": 4580, "BSTAR": 0, "MEAN_MOTION_DOT": -5.9e-07, "MEAN_MOTION_DDOT": 0}, "tle": {"line1": "1 43567U 18060D   25335.46049598 -.00000059  00000+0  00000+0 0  9996", "line2": "2 43567  57.2328 347.1280 0006105 280.6549  79.3184  1.70475407 45809"}}, "geometry": {"type": "Point", "coordinates": [-8.043016562693182, 7.557985306846678]}}, {"type": "Feature", "properties": {"norad_id": 49809, "name": "GSAT0223 (GALILEO 27)", "group": "galileo", "lat": 55.95425336140552, "lon": 94.41664864180413, "alt_km": 23227.615106737892, "timestamp": "2025-12-04T09:47:37.784434+00:00", "meta": {"OBJECT_NAME": "GSAT0223 (GALILEO 27)", "OBJECT_ID": "2021-116A", "EPOCH": "2025-12-01T07:17:38.669856", "MEAN_MOTION": 1.70475545, "ECCENTRICITY": 0.00047526, "INCLINATION": 57.2221, "RA_OF_ASC_NODE": 347.0231, "ARG_OF_PERICENTER": 247.908, "MEAN_ANOMALY": 106.7158, "EPHEMERIS_TYPE": 0, "CLASSIFICATION_TYPE": "U", "NORAD_CAT_ID": 49809, "ELEMENT_SET_NO": 999, "REV_AT_EPOCH": 2480, "BSTAR": 0, "MEAN_MOTION_DOT": -5.9e-07, "MEAN_MOTION_DDOT": 0}, "tle": {"line1": "1 49809U 21116A   25335.30391979 -.00000059  00000+0  00000+0 0  9993", "line2": "2 49809  57.2221 347.0231 0004752 247.9080 106.7158  1.70475545 24809"}}, "geometry": {"type": "Point", "coordinates": [94.41664864180413, 55.95425336140552]}}, {"type": "Feature", "properties": {"norad_id": 49810, "name": "GSAT0224 (GALILEO 28)", "group": "galileo", "lat": -26.677181528248614, "lon": -174.163311543634, "alt_km": 23216.089366790184, "timestamp": "2025-12-04T09:47:37.784445+00:00", "meta": {"OBJECT_NAME": "GSAT0224 (GALILEO 28)", "OBJECT_ID": "2021-116B", "EPOCH": "2025-12-01T10:08:38.707008", "MEAN_MOTION": 1.70475584, "ECCENTRICITY": 0.00040435, "INCLINATION": 57.2228, "RA_OF_ASC_NODE": 347.0184, "ARG_OF_PERICENTER": 250.3752, "MEAN_ANOMALY": 289.7186, "EPHEMERIS_TYPE": 0, "CLASSIFICATION_TYPE": "U", "NORAD_CAT_ID": 49810, "ELEMENT_SET_NO": 999, "REV_AT_EPOCH": 2483, "BSTAR": 0, "MEAN_MOTION_DOT": -5.9e-07, "MEAN_MOTION_DDOT": 0}, "tle": {"line1": "1 49810U 21116B   25335.42267022 -.00000059  00000+0  00000+0 0  9999", "line2": "2 49810  57.2228 347.0184 0004043 250.3752 289.7186  1.70475584 24831"}}, "geometry": {"type": "Point", "coordinates": [-174.163311543634, -26.677181528248614]}}, {"type": "Feature", "properties": {"norad_id": 59598, "name": "GSAT0225 (GALILEO 29)", "group": "galileo", "lat": -20.1312145559932, "lon": -58.61669672305401, "alt_km": 23219.528639740154, "timestamp": "2025-12-04T09:47:37.784456+00:00", "meta": {"OBJECT_NAME": "GSAT0225 (GALILEO 29)", "OBJECT_ID": "2024-079A", "EPOCH": "2025-12-01T03:29:20.871744", "MEAN_MOTION": 1.70474544, "ECCENTRICITY": 0.0002155, "INCLINATION": 54.9941, "RA_OF_ASC_NODE": 106.6197, "ARG_OF_PERICENTER": 171.5653, "MEAN_ANOMALY": 190.7741, "EPHEMERIS_TYPE": 0, "CLASSIFICATION_TYPE": "U", "NORAD_CAT_ID": 59598, "ELEMENT_SET_NO": 999, "REV_AT_EPOCH": 994, "BSTAR": 0, "MEAN_MOTION_DOT": 4.1e-07, "MEAN_MOTION_DDOT": 0}, "tle": {"line1": "1 59598U 24079A   25335.14538046  .00000041  00000+0  00000+0 0  9990", "line2": "2 59598  54.9941 106.6197 0002155 171.5653 190.7741  1.70474544  9948"}}, "geometry": {"type": "Point", "coordinates": [-58.61669672305401, -20.1312145559932]}}, {"type": "Feature", "properties": {"norad_id": 59600, "name": "GSAT0227 (GALILEO 30)", "group": "galileo", "lat": 54.92799769353706, "lon": -159.55909815428134, "alt_km": 23206.35435712057, "timestamp": "2025-12-04T09:47:37.784467+00:00", "meta": {"OBJECT_NAME": "GSAT0227 (GALILEO 30)", "OBJECT_ID": "2024-079C", "EPOCH": "2025-12-03T16:06:35.879040", "MEAN_MOTION": 1.70474617, "ECCENTRICITY": 0.00034037, "INCLINATION": 54.9912, "RA_OF_ASC_NODE": 106.5479, "ARG_OF_PERICENTER": 113.2328, "MEAN_ANOMALY": 246.7577, "EPHEMERIS_TYPE": 0, "CLASSIFICATION_TYPE": "U", "NORAD_CAT_ID": 59600, "ELEMENT_SET_NO": 999, "REV_AT_EPOCH": 1003, "BSTAR": 0, "MEAN_MOTION_DOT": 1.8e-07, "MEAN_MOTION_DDOT": 0}, "tle": {"line1": "1 59600U 24079C   25337.67124860  .00000018  00000+0  00000+0 0  9993", "line2": "2 59600  54.9912 106.5479 0003403 113.2328 246.7577  1.70474617 10033"}}, "geometry": {"type": "Point", "coordinates": [-159.55909815428134, 54.92799769353706]}}, {"type": "Feature", "properties": {"norad_id": 61182, "name": "GSAT0232 (GALILEO 32)", "group": "galileo", "lat": -51.90827764643174, "lon": 164.46768915479979, "alt_km": 23225.75447692204, "timestamp": "2025-12-04T09:47:37.784479+00:00", "meta": {"OBJECT_NAME": "GSAT0232 (GALILEO 32)", "OBJECT_ID": "2024-167A", "EPOCH": "2025-11-29T15:16:36.414048", "MEAN_MOTION": 1.70473184, "ECCENTRICITY": 0.00022439, "INCLINATION": 55.2459, "RA_OF_ASC_NODE": 226.7912, "ARG_OF_PERICENTER": 216.1557, "MEAN_ANOMALY": 22.2275, "EPHEMERIS_TYPE": 0, "CLASSIFICATION_TYPE": "U", "NORAD_CAT_ID": 61182, "ELEMENT_SET_NO": 999, "REV_AT_EPOCH": 747, "BSTAR": 0, "MEAN_MOTION_DOT": 2.7e-07, "MEAN_MOTION_DDOT": 0}, "tle": {"line1": "1 61182U 24167A   25333.63653257  .00000027  00000+0  00000+0 0  9998", "line2": "2 61182  55.2459 226.7912 0002243 216.1557  22.2275  1.70473184  7470"}}, "geometry": {"type": "Point", "coordinates": [164.46768915479979, -51.90827764643174]}}]}